FM118
1 41183C 15081E   19033.94432794  .00000000  00000-0  00000-0 0 22052
2 41183  47.0040  67.0796 0001555 294.4839  65.5883 14.54759689242195
